GLOBALSTAR M075         
1 37192U 10054E   24116.86756097 -.00000067  00000+0  20362-3 0  9993
2 37192  51.9976  12.1831 0000834  77.2728 359.7143 12.62273133623301
GLOBALSTAR M073         
1 37193U 10054F   24117.49173830 -.00000089  00000+0  80936-4 0  9990
2 37193  52.0059 283.7848 0000843 115.5027 279.0506 12.62264406625265
GLOBALSTAR M083         
1 37739U 11033A   24117.57935421 -.00000060  00000+0  24509-3 0  9997
2 37739  51.9855 232.8170 0000583  99.9791 273.6939 12.62269349594604
GLOBALSTAR M088         
1 37740U 11033B   24116.93155743 -.00000074  00000+0  16527-3 0  9995
2 37740  51.9711 140.6322 0000387  75.0101 354.0573 12.62267671589703
GLOBALSTAR M091         
1 37741U 11033C   24117.18512441 -.00000105  00000+0 -60024-5 0  9995
2 37741  51.9983 102.6672 0000619  51.7470  29.8061 12.62261984590789
GLOBALSTAR M085         
1 37742U 11033D   24117.01320596 -.00000091  00000+0  73029-4 0  9997
2 37742  51.9882  54.5977 0000794  59.3518  20.5913 12.62269970591500
GLOBALSTAR M081         
1 37743U 11033E   24115.06019661 -.00000104  00000+0 -28749-5 0  9995
2 37743  51.9967  63.0737 0000854  68.1855  12.4673 12.62264435590911
GLOBALSTAR M089         
1 37744U 11033F   24117.41637013 -.00000062  00000+0  23541-3 0  9999
2 37744  51.9958  10.2096 0000690 108.4922  63.2112 12.62262669592309
